ECHOSTAR 14             
1 36499U 10010A   23051.58284642 -.00000014  00000+0  00000+0 0  9997
2 36499   0.0228 142.4970 0002064 179.7867 278.9002  1.00269972 34392
SES-1                   
1 36516U 10016A   23051.53462007 -.00000128  00000+0  00000+0 0  9997
2 36516   0.0120 252.8543 0002306  76.8755 271.9463  1.00269118 46880
ASTRA 3B                
1 36581U 10021A   23051.29155912  .00000122  00000+0  00000+0 0  9995
2 36581   0.0724  62.0412 0003009 262.4835 313.8505  1.00272079 46716
COMSATBW-2              
1 36582U 10021B   23051.28972866  .00000073  00000+0  00000+0 0  9995
2 36582   0.0097 158.9191 0002077 180.5359 287.9618  1.00268338 46791
BEIDOU-2 G3             
1 36590U 10024A   23051.08776766 -.00000148  00000+0  00000+0 0  9990
2 36590   2.0060  54.2426 0008601 334.6862 231.9891  1.00270787 46615
BADR-5                  
1 36592U 10025A   23051.50729778  .00000130  00000+0  00000+0 0  9991
2 36592   0.0494 116.2956 0000279 264.2834 338.1677  1.00272674 41055
COMS 1                  
1 36744U 10032A   23051.52778150 -.00000359  00000+0  00000+0 0  9992
2 36744   1.6934  90.7775 0000792 241.7110 135.8500  1.00271721 38934
ARABSAT-5A              
1 36745U 10032B   23051.23799573  .00000139  00000+0  00000+0 0  9998
2 36745   0.0578  46.4970 0003667 307.6889 271.8732  1.00269416 46481
ECHOSTAR 15             
1 36792U 10034A   23051.48995196 -.00000296  00000+0  00000+0 0  9993
2 36792   0.0598 289.4637 0001941  31.3139 304.0836  1.00269936 46162
BEIDOU-2 IGSO-1         
1 36828U 10036A   23051.21160256 -.00000164  00000+0  00000+0 0  9991
2 36828  54.2098 173.9652 0035084 185.1961 335.2592  1.00279790 46061
NILESAT 201             
1 36830U 10037A   23051.28571907 -.00000072  00000+0  00000+0 0  9999
2 36830   0.0421 192.2908 0002962 139.8703 273.6181  1.00271617 46205
RASCOM-QAF 1R           
1 36831U 10037B   23051.28763670  .00000004  00000+0  00000+0 0  9994
2 36831   0.0320 116.2661 0006075 199.0135 301.0881  1.00271125 46131
AEHF-1 (USA 214)        
1 36868U 10039A   23051.28789819  .00000011  00000+0  00000+0 0  9997
2 36868   5.1568  83.5363 0001951 342.3430 191.6763  1.00269714 41492
QZS-1 (MICHIBIKI-1)     
1 37158U 10045A   23047.67249877 -.00000213  00000+0  00000+0 0  9995
2 37158  42.5946 130.0265 0765612 270.7024 120.3634  1.00243318 45541
XM-5                    
1 37185U 10053A   23051.35813354 -.00000037  00000+0  00000+0 0  9995
2 37185   0.0175 144.9169 0000901  55.3780 323.4677  1.00268874 45323
BSAT-3B                 
1 37207U 10056B   23051.02213251 -.00000364  00000+0  00000+0 0  9990
2 37207   0.0976 294.8913 0003997  41.9333 290.6515  1.00270203 39959
BEIDOU-2 G4             
1 37210U 10057A   23050.24326213 -.00000124  00000+0  00000+0 0  9995
2 37210   0.9967  54.6323 0003695 174.4445 167.4867  1.00271070 45119
SKYTERRA 1              
1 37218U 10061A   23051.60476344 -.00000131  00000+0  00000+0 0  9998
2 37218   2.7754  39.9659 0001825 329.5501 257.1426  1.00270742 45032
ZHONGXING-20A           
1 37234U 10064A   23051.09493762 -.00000203  00000+0  00000+0 0  9995
2 37234   3.2717  85.8080 0002751 247.9452 295.7207  1.00271727 44869
HYLAS 1                 
1 37237U 10065A   23051.51226618  .00000122  00000+0  00000+0 0  9999
2 37237   2.5423  87.5251 0000392 100.6417 196.4248  0.99920983 44811
INTELSAT 17 (IS-17)     
1 37238U 10065B   23051.51540410 -.00000016  00000+0  00000+0 0  9992
2 37238   0.0180 177.8504 0002577 156.1373  67.7207  1.00271313 41072
BEIDOU-2 IGSO-2         
1 37256U 10068A   23051.55118343 -.00000169  00000+0  00000+0 0  9994
2 37256  49.7642 286.6688 0023128 205.0155 324.5545  1.00289752 44634
EUTELSAT KA-SAT 9A      
1 37258U 10069A   23051.28885701  .00000047  00000+0  00000+0 0  9990
2 37258   0.0677 292.1367 0001306 133.9504 196.8498  1.00271149 31837
HISPASAT 30W-5          
1 37264U 10070A   23051.42457271 -.00000231  00000+0  00000+0 0  9998
2 37264   0.0293 118.6036 0002736 227.6896 286.6027  1.00268719 41023
KOREASAT 6              
1 37265U 10070B   23051.55842418 -.00000377  00000+0  00000+0 0  9995
2 37265   0.0242 130.0260 0001836 205.4217 131.7866  1.00270480 44613
BEIDOU-2 IGSO-3         
1 37384U 11013A   23050.93729887 -.00000151  00000+0  00000+0 0  9990
2 37384  60.6570  51.8127 0024464 188.8742 352.6699  1.00288894 43505
INTELSAT NEW DAWN       
1 37392U 11016A   23051.50877958  .00000141  00000+0  00000+0 0  9997
2 37392   0.0109 144.3101 0000623 312.4824 269.2979  1.00273135 41129
YAHSAT 1A               
1 37393U 11016B   23051.51270199  .00000086  00000+0  00000+0 0  9991
2 37393   0.0114 117.4962 0001640 207.6833  62.0491  1.00271505 30245
SBIRS GEO-1 (USA 230)   
1 37481U 11019A   23051.51531693 -.00000017  00000+0  00000+0 0  9996
2 37481   2.1831  35.6763 0001975 290.6238  75.0722  1.00272216 43249
TELSTAR 14R             
1 37602U 11021A   23051.41794818 -.00000294  00000+0  00000+0 0  9990
2 37602   0.0119 104.7584 0002708 218.7266 274.0244  1.00271258 43678
GSAT-8                  
1 37605U 11022A   23051.51322498  .00000070  00000+0  00000+0 0  9997
2 37605   0.0217 140.5486 0007112 144.5246 104.9627  1.00270823 41050
ST-2                    
1 37606U 11022B   23051.51976234 -.00000226  00000+0  00000+0 0  9995
2 37606   0.0143 116.9423 0002028 242.8717  65.4811  1.00270554 43119
CHINASAT 10 (ZX 10)     
1 37677U 11026A   23051.52271660 -.00000367  00000+0  00000+0 0  9995
2 37677   0.0232 144.3966 0002566  69.8548 234.6574  1.00268258 42831
TIANLIAN 1-02           
1 37737U 11032A   23050.24456961 -.00000063  00000+0  00000+0 0  9999
2 37737   2.6564  73.6860 0081406 359.2403 331.0332  1.00270018 42546
GSAT-12                 
1 37746U 11034A   23051.51183034  .00000110  00000+0  00000+0 0  9992
2 37746   2.0074  89.6836 0007627 341.1685 311.4601  1.00271725 31333
SES-3                   
1 37748U 11035A   23051.05141990 -.00000115  00000+0  00000+0 0  9995
2 37748   0.0090 311.1403 0002368  11.1767 102.8842  1.00270876 42423
KAZSAT-2                
1 37749U 11035B   23051.51950084 -.00000212  00000+0  00000+0 0  9997
2 37749   0.0167 134.1500 0000432 115.3133 174.2072  1.00272998 41226
BEIDOU-2 IGSO-4         
1 37763U 11038A   23051.21366853 -.00000099  00000+0  00000+0 0  9991
2 37763  54.4878 176.4760 0104287 227.6366 278.1912  1.00271981 42486
ASTRA 1N                
1 37775U 11041A   23051.29094897  .00000105  00000+0  00000+0 0  9999
2 37775   0.0521  11.3321 0004672 355.9430 266.5997  1.00268769 32365
BSAT-3C (JCSAT-110R)    
1 37776U 11041B   23051.52420774 -.00000365  00000+0  00000+0 0  9992
2 37776   0.0588 299.7638 0000042 141.9079   7.1478  1.00272175 38322
PAKSAT-1R               
1 37779U 11042A   23051.29469706  .00000139  00000+0  00000+0 0  9996
2 37779   0.0202  80.3715 0003122 322.8480 250.7833  1.00273849 42310
CHINASAT 1A (ZX 1A)     
1 37804U 11047A   23051.57757794  .00000096  00000+0  00000+0 0  9990
2 37804   0.5799  94.5874 0003672 260.4471  58.2885  1.00052865 15192
SES-2                   
1 37809U 11049A   23051.48489640 -.00000210  00000+0  00000+0 0  9998
2 37809   0.0153 254.5320 0002546  73.3380 269.8611  1.00268268 41797
ARABSAT-5C              
1 37810U 11049B   23051.29112330  .00000109  00000+0  00000+0 0  9994
2 37810   0.0565 354.6762 0002218 243.4403  36.6375  1.00273994 41890
EUTELSAT 7 WEST A       
1 37816U 11051A   23051.28563191 -.00000074  00000+0  00000+0 0  9999
2 37816   0.0651  14.0995 0003106 222.9925   8.3955  1.00271362 41735
QUETZSAT 1              
1 37826U 11054A   23051.48690119 -.00000256  00000+0  00000+0 0  9998
2 37826   0.0172 313.5728 0002510  23.2244 271.6199  1.00270556 37722
INTELSAT 18 (IS-18)     
1 37834U 11056A   23051.53452265  .00000038  00000+0  00000+0 0  9990
2 37834   0.0306 359.6499 0001919 342.4096 180.5360  1.00272182 41651
EUTELSAT 16A            
1 37836U 11057A   23051.29354802  .00000090  00000+0  00000+0 0  9992
2 37836   0.0689  17.3265 0005211 314.0235 300.2595  1.00273186 33809
VIASAT-1                
1 37843U 11059A   23051.47931785 -.00000037  00000+0  00000+0 0  9995
2 37843   0.0240 141.4044 0002069 197.0395 229.1337  1.00269051 35168
ASIASAT 7               
1 37933U 11069A   23050.88382749 -.00000348  00000+0  00000+0 0  9995
2 37933   0.0406 270.3156 0001394  40.3251 262.5857  1.00270231 41290
BEIDOU-2 IGSO-5         
1 37948U 11073A   23050.09826683 -.00000117  00000+0  00000+0 0  9993
2 37948  49.8876 286.3409 0085311 220.1750 133.9447  1.00278310 41224
LUCH 5A                 
1 37951U 11074B   23051.63942598 -.00000062  00000+0  00000+0 0  9992
2 37951   5.6437  93.0953 0002522 248.5365 205.7827  1.00270618 41039
NIGCOMSAT 1R            
1 38014U 11077A   23051.51069720  .00000130  00000+0  00000+0 0  9995
2 38014   0.0075 298.9876 0004695  47.2403  30.2525  1.00269631 40798
FENGYUN 2F              
1 38049U 12002A   23051.52455640 -.00000371  00000+0  00000+0 0  9991
2 38049   4.3992  77.7142 0000534 192.8866 180.2576  1.00280537 40721
WGS F4 (USA 233)        
1 38070U 12003A   23051.24910435 -.00000229  00000+0  00000+0 0  9995
2 38070   0.0095 129.8741 0000204 134.8862  63.1902  1.00270062 31973
SES-4                   
1 38087U 12007A   23051.31091138 -.00000182  00000+0  00000+0 0  9993
2 38087   0.0238  71.7159 0002519 270.5962 257.5736  1.00271763 40072
BEIDOU-2 G5             
1 38091U 12008A   23050.60396472  .00000044  00000+0  00000+0 0  9995
2 38091   2.1334  71.7531 0013739 310.7426  42.8710  1.00272048 40309
MUOS-1                  
1 38093U 12009A   23051.60486836 -.00000139  00000+0  00000+0 0  9999
2 38093   3.2499  37.8821 0056834 356.3064 233.8098  1.00271111 40285
INTELSAT 22 (IS-22)     
1 38098U 12011A   23051.26021630 -.00000073  00000+0  00000+0 0  9993
2 38098   0.0281  99.5557 0002565 231.9075 344.2310  1.00272398 39658
